PROXIMA I               
1 43694U 18088E   23023.83186871  .00024573  00000+0  80343-3 0  9994
2 43694  85.0305 165.7679 0015879  20.2624 339.9249 15.31464548233622
LEMUR-2-ZUPANSKI        
1 43695U 18088F   23022.64981929  .00049255  00000+0  13308-2 0  9990
2 43695  85.0276 166.2394 0011697  38.3287 321.8792 15.37473053233438
PROXIMA II              
1 43696U 18088G   23022.66099988  .00026418  00000+0  86673-3 0  9990
2 43696  85.0304 166.5851 0016019  24.4101 335.7901 15.31348136233440
LEMUR-2-CHANUSIAK       
1 43697U 18088H   23023.10713310  .00055258  00000+0  13778-2 0  9992
2 43697  85.0330 165.7773 0011537  21.0001 339.1722 15.39922523233687
GSAT-29                 
1 43698U 18089A   23023.68689795  .00000080  00000+0  00000+0 0  9990
2 43698   0.0351 103.9938 0003034 174.5443 146.4965  1.00272091 15386
ES'HAIL 2               
1 43700U 18090A   23023.32246144  .00000140  00000+0  00000+0 0  9991
2 43700   0.0227  89.6725 0002053 264.0573 270.5254  1.00272844 15471
BEIDOU-3 M17            
1 43706U 18093A   23020.18701580  .00000110  00000+0  00000+0 0  9998
2 43706  54.3031 224.5706 0006794 290.7697  69.2170  1.86231819 28352
BEIDOU-3 M18            
1 43707U 18093B   23023.26993992  .00000066  00000+0  00000+0 0  9991
2 43707  54.3026 224.4572 0006847 327.7759  30.6168  1.86232320 28410
TIANZHI 1               
1 43710U 18094A   23023.86390226  .00011637  00000+0  43027-3 0  9999
2 43710  97.3956  36.2849 0010982 302.5303 178.5767 15.27808036232439
SHIYAN 6 01 (SY-6 01)   
1 43711U 18094B   23023.65580092  .00010553  00000+0  37180-3 0  9998
2 43711  97.4141  34.1086 0064896  60.1953 300.5717 15.27442459232174
TIANPING 1A             
1 43712U 18094C   23023.81413094  .00018601  00000+0  61211-3 0  9998
2 43712  97.3912  38.0196 0009199 291.9514 240.9920 15.31520009232555
JIADING 1               
1 43713U 18094D   23023.83364876  .00016381  00000+0  55434-3 0  9997
2 43713  97.3915  37.7299 0010387 297.9368 186.4769 15.30630396232536
TIANPING 1B             
1 43714U 18094E   23023.85005965  .00011134  00000+0  40430-3 0  9992
2 43714  97.3950  36.7668 0009679 299.6050 182.6295 15.28429841232466
MOHAMMED VI-B           
1 43717U 18095A   23023.82207468  .00000302  00000+0  49976-4 0  9995
2 43717  97.9495  97.9655 0001384  72.7367 287.4000 14.77103649224928
HYSIS                   
1 43719U 18096A   23023.83479056  .00002424  00000+0  33725-3 0  9994
2 43719  97.9329  92.1342 0001748 166.3361 193.7888 14.78721217224127
FACSAT-1                
1 43721U 18096C   23023.78346510  .00087211  00000+0  15203-2 0  9996
2 43721  97.3306 109.8129 0010447 336.2260 145.2700 15.50366357231911
CENTAURI-2              
1 43722U 18096D   23023.50359947  .00160336  00000+0  17368-2 0  9999
2 43722  97.3344 113.6296 0010011 319.0351  41.0154 15.62975947232101
KEPLER-1 (CASE)         
1 43729U 18096L   23023.80156477  .00331138  00000+0  28429-2 0  9992
2 43729  97.3348 114.9698 0011202 319.2244  40.8178 15.68293285232194
GLOBAL-1                
1 43730U 18096M   23023.49352908  .00026964  00000+0  71413-3 0  9996
2 43730  97.3499 107.5258 0013105 356.2355   3.8789 15.38247284231686
LEMUR-2-ORZULAK         
1 43731U 18096N   23023.70273758  .00897403  37516-3  19545-2 0  9993
2 43731  97.3450 120.5084 0021311 313.7505  46.2007 15.97900163232513
LEMUR-2-KOBYSZCZE       
1 43732U 18096P   23023.81265487  .00796925  27607-3  20650-2 0  9992
2 43732  97.3484 121.1432 0018620 311.2807  48.6864 15.94796370232553
CICERO 8                
1 43737U 18096U   23023.51360785  .00081685  00000+0  13259-2 0  9992
2 43737  97.3390 115.4304 0013617 330.7002  29.3485 15.52352205232231
REAKTOR HELLO WORLD     
1 43743U 18096AA  23023.63195243  .00039021  00000+0  90800-3 0  9992
2 43743  97.3345 108.3604 0012726 350.6118   9.4890 15.42116507231781
HIBER-1                 
1 43744U 18096AB  23023.79991596  .00312883  00000+0  21883-2 0  9999
2 43744  97.3343 116.2981 0009590 314.5196  45.5284 15.73304319232284
LEMUR-2-DULY            
1 43745U 18096AC  23023.81835495  .00352465  00000+0  20356-2 0  9992
2 43745  97.3492 119.5900 0014178 309.9663  50.0357 15.77548832232479
COSMOS 2530             
1 43751U 18097A   23023.75174953  .00000045  00000+0  25402-3 0  9990
2 43751  82.5147 272.2100 0018762 222.2738 137.6894 12.42892665188283
COSMOS 2531             
1 43752U 18097B   23023.77728517  .00000024  00000+0  10000-3 0  9999
2 43752  82.5190 272.7919 0015902 240.7777 119.1712 12.42899786188292
COSMOS 2532             
1 43753U 18097C   23023.72285049  .00000024  00000+0  10000-3 0  9993
2 43753  82.5140 272.1742 0017121 246.0373 113.8931 12.42900310188281
MINXSS-2                
1 43758U 18099A   23023.13909131  .00009695  00000+0  80152-3 0  9998
2 43758  97.6006  90.6460 0012303 243.8221 116.1738 14.99076404225991
SIRION PATHFINDER-2     
1 43759U 18099B   23023.11762814  .00005756  00000+0  49951-3 0  9998
2 43759  97.5935  88.9304 0012363 240.4284 119.5706 14.97371584225905
ELYSIUM STAR 2 & LFF    
1 43760U 18099C   23023.16120533  .00015877  00000+0  12248-2 0  9994
2 43760  97.5887  91.9906 0008027 222.9316 137.1283 15.01642972226059
2018-099D               
1 43761U 18099D   23023.83710522  .00003543  00000+0  31552-3 0  9999
2 43761  97.5951  89.4293 0012993 249.5979 110.3822 14.96601271225972
STPSAT-5                
1 43762U 18099E   23023.13003625  .00005787  00000+0  49357-3 0  9996
2 43762  97.5996  91.0424 0012074 245.9583 114.0376 14.98043775226009
POLAR SCOUT KODIAK      
1 43764U 18099G   23023.50033425  .00008984  00000+0  72013-3 0  9997
2 43764  97.6006  93.2615 0017033 247.7676 112.1741 15.00235562226177
HAWK-A                  
1 43765U 18099H   23023.11748946  .00005333  00000+0  45510-3 0  9993
2 43765  97.5920  90.3648 0013210 250.6727 109.3068 14.98050019226010
SPAWAR-CAL-O            
1 43766U 18099J   23023.12802759  .00009040  00000+0  77055-3 0  9996
2 43766  97.5930  87.9369 0008891 245.8465 114.1828 14.97940000225854
CORVUS BC4              
1 43767U 18099K   23023.42643951  .00005026  00000+0  44363-3 0  9993
2 43767  97.5884  87.4109 0010249 248.3170 111.6961 14.96784352225867
AISTECHSAT 2            
1 43768U 18099L   23022.92786775  .00006788  00000+0  59592-3 0  9996
2 43768  97.5907  86.9472 0009227 249.3288 110.6945 14.96882363225509
FLOCK 3S-1              
1 43769U 18099M   23023.12366800  .00012115  00000+0  10400-2 0  9998
2 43769  97.5949  87.8556 0011966 255.1348 104.8549 14.97558863225864
FOX-1CLIFF (AO-95)      
1 43770U 18099N   23023.43224689  .00007078  00000+0  60523-3 0  9996
2 43770  97.5938  88.9108 0012945 257.0605 102.9172 14.97861461225923
2018-099P               
1 43771U 18099P   23023.15630656  .00007570  00000+0  64171-3 0  9991
2 43771  97.5948  88.9045 0012710 258.2022 101.7775 14.98175924225885
RANGE-A                 
1 43772U 18099Q   23023.44261983  .00009622  00000+0  79792-3 0  9992
2 43772  97.6048  91.1917 0012882 241.3813 118.6115 14.98952429225960
RANGE-B                 
1 43773U 18099R   23023.43661423  .00005382  00000+0  47107-3 0  9999
2 43773  97.5851  87.3901 0011984 242.4667 117.5337 14.97068591225896
HIBER-2                 
1 43774U 18099S   23023.14751203  .00010536  00000+0  86852-3 0  9991
2 43774  97.6050  90.3852 0009953 247.4059 112.6111 14.99183131225921
2018-099T               
1 43775U 18099T   23023.44171984  .00004723  00000+0  41576-3 0  9992
2 43775  97.5933  88.8224 0013000 247.3312 112.6536 14.96895134225892
SPAWAR-CAL-R            
1 43776U 18099U   23023.16123385  .00003163  00000+0  28380-3 0  9999
2 43776  97.5919  88.0967 0013161 250.1838 109.7965 14.96385020225831
SPAWAR-CAL-OR           
1 43778U 18099W   23023.15925387  .00006797  00000+0  58202-3 0  9994
2 43778  97.5815  86.8623 0012431 252.4788 107.5077 14.97822265225468
2018-099X               
1 43779U 18099X   23023.44326948  .00004061  00000+0  36084-3 0  9991
2 43779  97.5922  88.5683 0012988 247.7037 112.2808 14.96608234225882
MOVE-II                 
1 43780U 18099Y   23023.14535716  .00013328  00000+0  10688-2 0  9992
2 43780  97.6041  90.4385 0010100 261.0288  98.9793 15.00184606225969
SNUSAT-2                
1 43782U 18099AA  23023.12698786  .00007645  00000+0  65257-3 0  9997
2 43782  97.5947  89.1242 0010456 238.8842 121.1355 14.97922376225900
KAZSTSAT                
1 43783U 18099AB  23023.16324150  .00002064  00000+0  19679-3 0  9990
2 43783  97.6023  86.9391 0006547 252.8255 107.2249 14.94403494225614
SNUGLITE                
1 43784U 18099AC  23023.12493514  .00008546  00000+0  72170-3 0  9994
2 43784  97.5906  88.7456 0012462 247.3317 112.6588 14.98286966225935
ORBWEAVER 2             
1 43785U 18099AD  23023.14653033  .00019410  00000+0  14585-2 0  9998
2 43785  97.5855  91.3206 0017924 233.3125 126.6454 15.02494538225627
ITASAT 1                
1 43786U 18099AE  23023.14818825  .00005923  00000+0  50789-3 0  9992
2 43786  97.5984  89.6536 0012832 250.2063 109.7776 14.97822955225922
KAZSCISAT-1             
1 43787U 18099AF  23023.14167738  .00012893  00000+0  10402-2 0  9994
2 43787  97.5936  89.1305 0010478 247.4130 112.5986 14.99956271226002
EAGLET-I                
1 43790U 18099AJ  23023.16500922  .00004836  00000+0  41645-3 0  9998
2 43790  97.5960  90.2075 0011965 254.0517 105.9387 14.97753226225660
CAPELLA-1-DENALI        
1 43791U 18099AK  23024.05266295  .03978333  27119-1  11488-1 0  9997
2 43791  97.6072 114.3211 0016026 310.1871 180.1928 15.97777856227233
ESEO                    
1 43792U 18099AL  23023.07185478  .00003487  00000+0  30911-3 0  9990
2 43792  97.5924  88.9581 0011245 250.9781 109.0223 14.96813179225675
CSIM-FD                 
1 43793U 18099AM  23022.62196116  .00011320  00000+0  89382-3 0  9993
2 43793  97.6032  91.0837 0015980 245.7602 114.1952 15.00759184225723
